GUOWANG GROUP 20 OBJECT*
1 68137U 26047J   26088.24973303 -.00000122  00000+0  19245-4 0  9999
2 68137  50.0061 350.8887 0000982 211.4979 148.5862 13.93924120  2314
CZ-8A R/B               
1 68138U 26047K   26089.91517608 -.00000129  00000+0  13660-4 0  9999
2 68138  49.9537 342.9053 0044757 211.2067 148.6181 14.12232316  2553
SHIYAN-30 03            
1 68139U 26048A   26089.92194346  .00003689  00000+0  36205-3 0  9994
2 68139  35.0014  16.8194 0002907  17.5005 342.5800 14.91739769  2670
SHIYAN-30 04            
1 68140U 26048B   26089.92263931  .00003513  00000+0  34481-3 0  9993
2 68140  34.9929  16.8198 0001427  13.9215 346.1529 14.91747836  2670
CZ-2D R/B               
1 68141U 26048C   26089.94567964  .00002326  00000+0  20800-3 0  9990
2 68141  35.1310  16.4076 0015267 153.4680 206.6812 14.95572190  2681
STARLINK-36604          
1 68142U 26049A   26089.80877816 -.00399007  00000+0 -22897-2 0  9991
2 68142  97.2835 110.1086 0004085  54.5260 305.6388 15.79707883  2744
STARLINK-36995          
1 68143U 26049B   26089.87109691  .00262110  00000+0  13202-2 0  9990
2 68143  97.2836 110.1766 0001638 114.1529 245.9911 15.80951961  2752
STARLINK-37020          
1 68144U 26049C   26089.86959551  .00251983  00000+0  12712-2 0  9999
2 68144  97.2838 110.1785 0001754 123.1862 236.9575 15.80943981  2754
STARLINK-36244          
1 68145U 26049D   26089.91667824  .00034521  00000+0  23167-3 0  9999
2 68145  97.2841 110.2029 0001638  78.8144 127.4195 15.75160057  4046
STARLINK-36980          
1 68146U 26049E   26089.86884307  .00285415  00000+0  14332-2 0  9994
2 68146  97.2839 110.1795 0001433  79.1236 281.0193 15.80959552  2755
STARLINK-37055          
1 68147U 26049F   26089.93364576  .00192484  00000+0  97836-3 0  9998
2 68147  97.2839 110.2443 0001605  98.7934 261.3516 15.80933393  2766
STARLINK-36981          
1 68148U 26049G   26089.86734188  .00262705  00000+0  13235-2 0  9995
2 68148  97.2841 110.1812 0001581  77.7955 282.3490 15.80946182  2755
