CCSDS_OMM_VERS = 2.0
CREATION_DATE  = 
ORIGINATOR     = 

OBJECT_NAME    = GUOWANG GROUP 20 OBJECT J
OBJECT_ID      = 2026-047J
CENTER_NAME    = EARTH
REF_FRAME      = TEME
TIME_SYSTEM    = UTC
MEAN_ELEMENT_THEORY = SGP/SGP4

EPOCH          = 2026-03-29T05:59:36.933792
MEAN_MOTION    = 13.93924120
ECCENTRICITY   = .00009825
INCLINATION    = 50.0061
RA_OF_ASC_NODE = 350.8887
ARG_OF_PERICENTER = 211.4979
MEAN_ANOMALY   = 148.5862

EPHEMERIS_TYPE = 0
CLASSIFICATION_TYPE = U
NORAD_CAT_ID   = 68137
ELEMENT_SET_NO = 999
REV_AT_EPOCH   = 231
BSTAR          = .19244539E-4
MEAN_MOTION_DOT = -.122E-5
MEAN_MOTION_DDOT = 0

CCSDS_OMM_VERS = 2.0
CREATION_DATE  = 
ORIGINATOR     = 

OBJECT_NAME    = CZ-8A R/B
OBJECT_ID      = 2026-047K
CENTER_NAME    = EARTH
REF_FRAME      = TEME
TIME_SYSTEM    = UTC
MEAN_ELEMENT_THEORY = SGP/SGP4

EPOCH          = 2026-03-30T21:57:51.213312
MEAN_MOTION    = 14.12232316
ECCENTRICITY   = .00447573
INCLINATION    = 49.9537
RA_OF_ASC_NODE = 342.9053
ARG_OF_PERICENTER = 211.2067
MEAN_ANOMALY   = 148.6181

EPHEMERIS_TYPE = 0
CLASSIFICATION_TYPE = U
NORAD_CAT_ID   = 68138
ELEMENT_SET_NO = 999
REV_AT_EPOCH   = 255
BSTAR          = .13660493E-4
MEAN_MOTION_DOT = -.129E-5
MEAN_MOTION_DDOT = 0

CCSDS_OMM_VERS = 2.0
CREATION_DATE  = 
ORIGINATOR     = 

OBJECT_NAME    = SHIYAN-30 03
OBJECT_ID      = 2026-048A
CENTER_NAME    = EARTH
REF_FRAME      = TEME
TIME_SYSTEM    = UTC
MEAN_ELEMENT_THEORY = SGP/SGP4

EPOCH          = 2026-03-30T22:07:35.914944
MEAN_MOTION    = 14.91739769
ECCENTRICITY   = .00029071
INCLINATION    = 35.0014
RA_OF_ASC_NODE = 16.8194
ARG_OF_PERICENTER = 17.5005
MEAN_ANOMALY   = 342.5800

EPHEMERIS_TYPE = 0
CLASSIFICATION_TYPE = U
NORAD_CAT_ID   = 68139
ELEMENT_SET_NO = 999
REV_AT_EPOCH   = 267
BSTAR          = .36204634E-3
MEAN_MOTION_DOT = .3689E-4
MEAN_MOTION_DDOT = 0

CCSDS_OMM_VERS = 2.0
CREATION_DATE  = 
ORIGINATOR     = 

OBJECT_NAME    = SHIYAN-30 04
OBJECT_ID      = 2026-048B
CENTER_NAME    = EARTH
REF_FRAME      = TEME
TIME_SYSTEM    = UTC
MEAN_ELEMENT_THEORY = SGP/SGP4

EPOCH          = 2026-03-30T22:08:36.036384
MEAN_MOTION    = 14.91747836
ECCENTRICITY   = .00014275
INCLINATION    = 34.9929
RA_OF_ASC_NODE = 16.8198
ARG_OF_PERICENTER = 13.9215
MEAN_ANOMALY   = 346.1529

EPHEMERIS_TYPE = 0
CLASSIFICATION_TYPE = U
NORAD_CAT_ID   = 68140
ELEMENT_SET_NO = 999
REV_AT_EPOCH   = 267
BSTAR          = .34481063E-3
MEAN_MOTION_DOT = .3513E-4
MEAN_MOTION_DDOT = 0

CCSDS_OMM_VERS = 2.0
CREATION_DATE  = 
ORIGINATOR     = 

OBJECT_NAME    = CZ-2D R/B
OBJECT_ID      = 2026-048C
CENTER_NAME    = EARTH
REF_FRAME      = TEME
TIME_SYSTEM    = UTC
MEAN_ELEMENT_THEORY = SGP/SGP4

EPOCH          = 2026-03-30T22:41:46.720896
MEAN_MOTION    = 14.95572190
ECCENTRICITY   = .00152674
INCLINATION    = 35.1310
RA_OF_ASC_NODE = 16.4076
ARG_OF_PERICENTER = 153.4680
MEAN_ANOMALY   = 206.6812

EPHEMERIS_TYPE = 0
CLASSIFICATION_TYPE = U
NORAD_CAT_ID   = 68141
ELEMENT_SET_NO = 999
REV_AT_EPOCH   = 268
BSTAR          = .20799845E-3
MEAN_MOTION_DOT = .2326E-4
MEAN_MOTION_DDOT = 0

CCSDS_OMM_VERS = 2.0
CREATION_DATE  = 
ORIGINATOR     = 

OBJECT_NAME    = STARLINK-36604
OBJECT_ID      = 2026-049A
CENTER_NAME    = EARTH
REF_FRAME      = TEME
TIME_SYSTEM    = UTC
MEAN_ELEMENT_THEORY = SGP/SGP4

EPOCH          = 2026-03-30T19:24:38.433024
MEAN_MOTION    = 15.79707883
ECCENTRICITY   = .00040855
INCLINATION    = 97.2835
RA_OF_ASC_NODE = 110.1086
ARG_OF_PERICENTER = 54.5260
MEAN_ANOMALY   = 305.6388

EPHEMERIS_TYPE = 0
CLASSIFICATION_TYPE = U
NORAD_CAT_ID   = 68142
ELEMENT_SET_NO = 999
REV_AT_EPOCH   = 274
BSTAR          = -.22897092E-2
MEAN_MOTION_DOT = -.399007E-2
MEAN_MOTION_DDOT = 0

CCSDS_OMM_VERS = 2.0
CREATION_DATE  = 
ORIGINATOR     = 

OBJECT_NAME    = STARLINK-36995
OBJECT_ID      = 2026-049B
CENTER_NAME    = EARTH
REF_FRAME      = TEME
TIME_SYSTEM    = UTC
MEAN_ELEMENT_THEORY = SGP/SGP4

EPOCH          = 2026-03-30T20:54:22.773024
MEAN_MOTION    = 15.80951961
ECCENTRICITY   = .00016383
INCLINATION    = 97.2836
RA_OF_ASC_NODE = 110.1766
ARG_OF_PERICENTER = 114.1529
MEAN_ANOMALY   = 245.9911

EPHEMERIS_TYPE = 0
CLASSIFICATION_TYPE = U
NORAD_CAT_ID   = 68143
ELEMENT_SET_NO = 999
REV_AT_EPOCH   = 275
BSTAR          = .13202131E-2
MEAN_MOTION_DOT = .26211E-2
MEAN_MOTION_DDOT = 0

CCSDS_OMM_VERS = 2.0
CREATION_DATE  = 
ORIGINATOR     = 

OBJECT_NAME    = STARLINK-37020
OBJECT_ID      = 2026-049C
CENTER_NAME    = EARTH
REF_FRAME      = TEME
TIME_SYSTEM    = UTC
MEAN_ELEMENT_THEORY = SGP/SGP4

EPOCH          = 2026-03-30T20:52:13.052064
MEAN_MOTION    = 15.80943981
ECCENTRICITY   = .00017549
INCLINATION    = 97.2838
RA_OF_ASC_NODE = 110.1785
ARG_OF_PERICENTER = 123.1862
MEAN_ANOMALY   = 236.9575

EPHEMERIS_TYPE = 0
CLASSIFICATION_TYPE = U
NORAD_CAT_ID   = 68144
ELEMENT_SET_NO = 999
REV_AT_EPOCH   = 275
BSTAR          = .12711803E-2
MEAN_MOTION_DOT = .251983E-2
MEAN_MOTION_DDOT = 0

CCSDS_OMM_VERS = 2.0
CREATION_DATE  = 
ORIGINATOR     = 

OBJECT_NAME    = STARLINK-36244
OBJECT_ID      = 2026-049D
CENTER_NAME    = EARTH
REF_FRAME      = TEME
TIME_SYSTEM    = UTC
MEAN_ELEMENT_THEORY = SGP/SGP4

EPOCH          = 2026-03-30T22:00:00.999936
MEAN_MOTION    = 15.75160057
ECCENTRICITY   = .00016381
INCLINATION    = 97.2841
RA_OF_ASC_NODE = 110.2029
ARG_OF_PERICENTER = 78.8144
MEAN_ANOMALY   = 127.4195

EPHEMERIS_TYPE = 0
CLASSIFICATION_TYPE = U
NORAD_CAT_ID   = 68145
ELEMENT_SET_NO = 999
REV_AT_EPOCH   = 404
BSTAR          = .23167291E-3
MEAN_MOTION_DOT = .34521E-3
MEAN_MOTION_DDOT = 0

CCSDS_OMM_VERS = 2.0
CREATION_DATE  = 
ORIGINATOR     = 

OBJECT_NAME    = STARLINK-36980
OBJECT_ID      = 2026-049E
CENTER_NAME    = EARTH
REF_FRAME      = TEME
TIME_SYSTEM    = UTC
MEAN_ELEMENT_THEORY = SGP/SGP4

EPOCH          = 2026-03-30T20:51:08.041248
MEAN_MOTION    = 15.80959552
ECCENTRICITY   = .00014337
INCLINATION    = 97.2839
RA_OF_ASC_NODE = 110.1795
ARG_OF_PERICENTER = 79.1236
MEAN_ANOMALY   = 281.0193

EPHEMERIS_TYPE = 0
CLASSIFICATION_TYPE = U
NORAD_CAT_ID   = 68146
ELEMENT_SET_NO = 999
REV_AT_EPOCH   = 275
BSTAR          = .14331674E-2
MEAN_MOTION_DOT = .285415E-2
MEAN_MOTION_DDOT = 0

CCSDS_OMM_VERS = 2.0
CREATION_DATE  = 
ORIGINATOR     = 

OBJECT_NAME    = STARLINK-37055
OBJECT_ID      = 2026-049F
CENTER_NAME    = EARTH
REF_FRAME      = TEME
TIME_SYSTEM    = UTC
MEAN_ELEMENT_THEORY = SGP/SGP4

EPOCH          = 2026-03-30T22:24:26.993664
MEAN_MOTION    = 15.80933393
ECCENTRICITY   = .00016053
INCLINATION    = 97.2839
RA_OF_ASC_NODE = 110.2443
ARG_OF_PERICENTER = 98.7934
MEAN_ANOMALY   = 261.3516

EPHEMERIS_TYPE = 0
CLASSIFICATION_TYPE = U
NORAD_CAT_ID   = 68147
ELEMENT_SET_NO = 999
REV_AT_EPOCH   = 276
BSTAR          = .97836352E-3
MEAN_MOTION_DOT = .192484E-2
MEAN_MOTION_DDOT = 0

CCSDS_OMM_VERS = 2.0
CREATION_DATE  = 
ORIGINATOR     = 

OBJECT_NAME    = STARLINK-36981
OBJECT_ID      = 2026-049G
CENTER_NAME    = EARTH
REF_FRAME      = TEME
TIME_SYSTEM    = UTC
MEAN_ELEMENT_THEORY = SGP/SGP4

EPOCH          = 2026-03-30T20:48:58.338432
MEAN_MOTION    = 15.80946182
ECCENTRICITY   = .00015818
INCLINATION    = 97.2841
RA_OF_ASC_NODE = 110.1812
ARG_OF_PERICENTER = 77.7955
MEAN_ANOMALY   = 282.3490

EPHEMERIS_TYPE = 0
CLASSIFICATION_TYPE = U
NORAD_CAT_ID   = 68148
ELEMENT_SET_NO = 999
REV_AT_EPOCH   = 275
BSTAR          = .13234686E-2
MEAN_MOTION_DOT = .262705E-2
MEAN_MOTION_DDOT = 0

